{"fetched_at":"2026-03-30T13:17:50Z","count":15418,"tles":[{"name":"STARLINK-3559","line1":"1 51860U 22022J   26087.80562900  .00000488  00000+0  48731-4 0  9997","line2":"2 51860  53.2160 283.3030 0001456  97.1672 262.9486 15.08839860226001","category":"Starlink"}]}